NORAD_CAT_ID,OBJECT_NAME,OBJECT_TYPE,EPOCH,MEAN_MOTION,ECCENTRICITY,INCLINATION,RA_OF_ASC_NODE,ARG_OF_PERICENTER,MEAN_ANOMALY,BSTAR,MEAN_MOTION_DOT,MEAN_MOTION_DDOT,TLE_LINE0,TLE_LINE1,TLE_LINE2,SEMIMAJOR_AXIS,PERIOD,APOGEE,PERIGEE,DECAYED
51887.0,STARLINK-3551,PAYLOAD,2024-01-01 05:38:05,15.08844816,0.0001532,53.2181,343.5234,98.7706,261.346,6.813e-05,7.97e-06,0.0,0 STARLINK-3551,1 51887U 22022AM  24001.23478178  .00000797  00000-0  68130-4 0  9999,2 51887  53.2181 343.5234 0001532  98.7706 261.3460 15.08844816102700,6917.866,95.437,540.79,538.671,0.0
51887.0,STARLINK-3551,PAYLOAD,2024-01-01 18:21:10,15.0883683,0.0001727,53.2178,341.1439,110.1771,249.9407,6.4898e-05,7.45e-06,0.0,0 STARLINK-3551,1 51887U 22022AM  24001.76470636  .00000745  00000-0  64898-4 0  9998,2 51887  53.2178 341.1439 0001727 110.1771 249.9407 15.08836830102782,6917.89,95.438,540.95,538.56,0.0
51887.0,STARLINK-3551,PAYLOAD,2024-01-01 23:07:20,15.08832753,0.0001599,53.2178,340.2521,102.6665,257.4506,7.8633e-05,9.63e-06,0.0,0 STARLINK-3551,1 51887U 22022AM  24001.96342965  .00000963  00000-0  78633-4 0  9997,2 51887  53.2178 340.2521 0001599 102.6665 257.4506 15.08832753102817,6917.903,95.438,540.874,538.661,0.0
51887.0,STARLINK-3551,PAYLOAD,2024-01-02 07:04:15,15.08843111,0.0001489,53.2183,338.767,91.8823,268.234,0.00012666,1.729e-05,0.0,0 STARLINK-3551,1 51887U 22022AM  24002.29462350  .00001729  00000-0  12666-3 0  9999,2 51887  53.2183 338.7670 0001489  91.8823 268.2340 15.08843111102864,6917.871,95.437,540.766,538.706,0.0
51887.0,STARLINK-3551,PAYLOAD,2024-01-02 18:11:57,15.0883668,0.0001512,53.2179,336.6835,104.2426,255.8734,7.4871e-05,9.04e-06,0.0,0 STARLINK-3551,1 51887U 22022AM  24002.75830902  .00000904  00000-0  74871-4 0  9993,2 51887  53.2179 336.6835 0001512 104.2426 255.8734 15.08836680102934,6917.891,95.438,540.802,538.71,0.0
51887.0,STARLINK-3551,PAYLOAD,2024-01-03 03:44:16,15.08835959,0.0001465,53.218,334.9004,99.7295,260.3862,2.922e-05,1.77e-06,0.0,0 STARLINK-3551,1 51887U 22022AM  24003.15575171  .00000177  00000-0  29220-4 0  9992,2 51887  53.2180 334.9004 0001465  99.7295 260.3862 15.08835959102991,6917.893,95.438,540.771,538.744,0.0
51887.0,STARLINK-3551,PAYLOAD,2024-01-03 06:55:02,15.08840278,0.0001451,53.2181,334.3058,98.1191,261.9966,4.0454e-05,3.56e-06,0.0,0 STARLINK-3551,1 51887U 22022AM  24003.28822882  .00000356  00000-0  40454-4 0  9991,2 51887  53.2181 334.3058 0001451  98.1191 261.9966 15.08840278103014,6917.88,95.438,540.748,538.741,0.0
51887.0,STARLINK-3551,PAYLOAD,2024-01-03 16:27:22,15.0883544,0.0001427,53.2181,332.5218,96.8492,263.2662,3.1405e-05,2.12e-06,0.0,0 STARLINK-3551,1 51887U 22022AM  24003.68567257  .00000212  00000-0  31405-4 0  9994,2 51887  53.2181 332.5218 0001427  96.8492 263.2662 15.08835440103073,6917.894,95.438,540.747,538.772,0.0
51887.0,STARLINK-3551,PAYLOAD,2024-01-04 06:45:49,15.08846205,0.0001422,53.2183,329.846,95.572,264.5434,9.4378e-05,1.215e-05,0.0,0 STARLINK-3551,1 51887U 22022AM  24004.28182473  .00001215  00000-0  94378-4 0  9996,2 51887  53.2183 329.8460 0001422  95.5720 264.5434 15.08846205103160,6917.861,95.437,540.71,538.743,0.0
51887.0,STARLINK-3551,PAYLOAD,2024-01-04 21:04:18,15.08836014,0.0001438,53.218,327.1695,95.8096,264.306,9.1185e-05,1.163e-05,0.0,0 STARLINK-3551,1 51887U 22022AM  24004.87799057  .00001163  00000-0  91185-4 0  9998,2 51887  53.2180 327.1695 0001438  95.8096 264.3060 15.08836014103254,6917.893,95.438,540.752,538.763,0.0
51887.0,STARLINK-3551,PAYLOAD,2024-01-05 05:01:13,15.08843372,0.0001429,53.218,325.6831,94.5607,265.5549,0.00014791,2.067e-05,0.0,0 STARLINK-3551,1 51887U 22022AM  24005.20918558  .00002067  00000-0  14791-3 0  9996,2 51887  53.2180 325.6831 0001429  94.5607 265.5549 15.08843372103309,6917.87,95.437,540.724,538.747,0.0
51887.0,STARLINK-3551,PAYLOAD,2024-01-05 16:08:55,15.08843784,0.0001351,53.2178,323.6023,91.4408,268.6739,2.2145e-05,6.5e-07,0.0,0 STARLINK-3551,1 51887U 22022AM  24005.67286773  .00000065  00000-0  22145-4 0  9993,2 51887  53.2178 323.6023 0001351  91.4408 268.6739 15.08843784103375,6917.869,95.437,540.668,538.799,0.0
51887.0,STARLINK-3551,PAYLOAD,2024-01-06 03:16:37,15.08842256,0.0001398,53.2181,321.52,99.9822,260.1328,6.5921e-05,7.61e-06,0.0,0 STARLINK-3551,1 51887U 22022AM  24006.13654786  .00000761  00000-0  65921-4 0  9990,2 51887  53.2181 321.5200 0001398  99.9822 260.1328 15.08842256103449,6917.873,95.437,540.706,538.771,0.0
51887.0,STARLINK-3551,PAYLOAD,2024-01-06 20:45:52,15.08834862,0.0001329,53.2184,318.2506,89.0657,271.0488,2.1419e-05,5.3e-07,0.0,0 STARLINK-3551,1 51887U 22022AM  24006.86519361  .00000053  00000-0  21419-4 0  9997,2 51887  53.2184 318.2506 0001329  89.0657 271.0488 15.08834862103558,6917.896,95.438,540.68,538.842,0.0
51887.0,STARLINK-3551,PAYLOAD,2024-01-07 03:07:25,15.08838462,0.0001413,53.218,317.0608,89.7568,270.3586,4.7661e-05,4.71e-06,0.0,0 STARLINK-3551,1 51887U 22022AM  24007.13015098  .00000471  00000-0  47661-4 0  9997,2 51887  53.2180 317.0608 0001413  89.7568 270.3586 15.08838462103591,6917.885,95.438,540.728,538.773,0.0
51887.0,STARLINK-3551,PAYLOAD,2024-01-07 06:18:10,15.0884419,0.0001397,53.2179,316.4653,94.1137,266.0014,5.3899e-05,5.7e-06,0.0,0 STARLINK-3551,1 51887U 22022AM  24007.26262706  .00000570  00000-0  53899-4 0  9991,2 51887  53.2179 316.4653 0001397  94.1137 266.0014 15.08844190103611,6917.868,95.437,540.699,538.766,0.0
51887.0,STARLINK-3551,PAYLOAD,2024-01-07 15:50:30,15.0883781,0.0001445,53.2178,314.68,107.3863,252.7287,5.6586e-05,6.13e-06,0.0,0 STARLINK-3551,1 51887U 22022AM  24007.66007055  .00000613  00000-0  56586-4 0  9993,2 51887  53.2178 314.6800 0001445 107.3863 252.7287 15.08837810103672,6917.887,95.438,540.752,538.752,0.0
51887.0,STARLINK-3551,PAYLOAD,2024-01-08 06:08:57,15.08847465,0.0001568,53.2173,312.0024,115.599,244.5164,8.8205e-05,1.116e-05,0.0,0 STARLINK-3551,1 51887U 22022AM  24008.25622385  .00001116  00000-0  88205-4 0  9990,2 51887  53.2173 312.0024 0001568 115.5990 244.5164 15.08847465103765,6917.858,95.437,540.807,538.638,0.0
51887.0,STARLINK-3551,PAYLOAD,2024-01-08 15:41:17,15.08833295,0.0001535,53.217,310.216,121.2246,238.8897,0.00010193,1.334e-05,0.0,0 STARLINK-3551,1 51887U 22022AM  24008.65367082  .00001334  00000-0  10193-3 0  9996,2 51887  53.2170 310.2160 0001535 121.2246 238.8897 15.08833295103827,6917.901,95.438,540.828,538.704,0.0
51887.0,STARLINK-3551,PAYLOAD,2024-01-09 02:48:59,15.08833876,0.0001408,53.2176,308.1388,98.2029,261.9123,5.9503e-05,6.59e-06,0.0,0 STARLINK-3551,1 51887U 22022AM  24009.11735539  .00000659  00000-0  59503-4 0  9992,2 51887  53.2176 308.1388 0001408  98.2029 261.9123 15.08833876103893,6917.899,95.438,540.738,538.79,0.0
51887.0,STARLINK-3551,PAYLOAD,2024-01-09 20:18:13,15.08841652,0.0001345,53.2175,304.8678,102.3166,257.7977,6.3882e-05,7.29e-06,0.0,0 STARLINK-3551,1 51887U 22022AM  24009.84599184  .00000729  00000-0  63882-4 0  9999,2 51887  53.2175 304.8678 0001345 102.3166 257.7977 15.08841652104001,6917.875,95.437,540.671,538.81,0.0
51887.0,STARLINK-3551,PAYLOAD,2024-01-10 01:04:22,15.08847023,0.000139,53.2175,303.977,89.3968,270.7184,0.00011524,1.547e-05,0.0,0 STARLINK-3551,1 51887U 22022AM  24010.04470805  .00001547  00000-0  11524-3 0  9995,2 51887  53.2175 303.9770 0001390  89.3968 270.7184 15.08847023104034,6917.859,95.437,540.686,538.762,0.0
51887.0,STARLINK-3551,PAYLOAD,2024-01-10 13:47:28,15.08839193,0.0001384,53.2174,301.5997,81.2851,278.8298,0.00013593,1.876e-05,0.0,0 STARLINK-3551,1 51887U 22022AM  24010.57463150  .00001876  00000-0  13593-3 0  9991,2 51887  53.2174 301.5997 0001384  81.2851 278.8298 15.08839193104116,6917.883,95.438,540.705,538.79,0.0
51887.0,STARLINK-3551,PAYLOAD,2024-01-11 02:30:33,15.08836008,0.0001138,53.2172,299.2196,92.1846,267.9276,0.00013285,1.827e-05,0.0,0 STARLINK-3551,1 51887U 22022AM  24011.10455761  .00001827  00000-0  13285-3 0  9994,2 51887  53.2172 299.2196 0001138  92.1846 267.9276 15.08836008104195,6917.893,95.438,540.545,538.97,0.0
51887.0,STARLINK-3551,PAYLOAD,2024-01-11 04:05:56,15.08842324,0.0001193,53.2166,298.9224,97.352,262.7608,9.8808e-05,1.285e-05,0.0,0 STARLINK-3551,1 51887U 22022AM  24011.17079252  .00001285  00000-0  98808-4 0  9991,2 51887  53.2166 298.9224 0001193  97.3520 262.7608 15.08842324104205,6917.873,95.437,540.564,538.913,0.0
51887.0,STARLINK-3551,PAYLOAD,2024-01-11 13:38:15,15.08836975,0.0001259,53.2167,297.1374,92.8677,267.246,2.4837e-05,1.07e-06,0.0,0 STARLINK-3551,1 51887U 22022AM  24011.56823570  .00000107  00000-0  24837-4 0  9997,2 51887  53.2167 297.1374 0001259  92.8677 267.2460 15.08836975104266,6917.89,95.438,540.626,538.884,0.0
51887.0,STARLINK-3551,PAYLOAD,2024-01-11 18:24:25,15.08836782,0.000119,53.2165,296.2453,96.005,264.1078,-5.3784e-06,-3.73e-06,0.0,0 STARLINK-3551,1 51887U 22022AM  24011.76695831 -.00000373  00000-0 -53784-5 0  9997,2 51887  53.2165 296.2453 0001190  96.0050 264.1078 15.08836782104297,6917.89,95.438,540.578,538.932,0.0
51887.0,STARLINK-3551,PAYLOAD,2024-01-12 03:56:43,15.08843798,0.0001166,53.2166,294.4615,88.6121,271.5005,5.1424e-05,5.31e-06,0.0,0 STARLINK-3551,1 51887U 22022AM  24012.16439404  .00000531  00000-0  51424-4 0  9996,2 51887  53.2166 294.4615 0001166  88.6121 271.5005 15.08843798104351,6917.869,95.437,540.54,538.927,0.0
51887.0,STARLINK-3551,PAYLOAD,2024-01-12 13:29:03,15.08833188,0.0001187,53.2161,292.6779,83.4454,276.6674,0.00019013,2.739e-05,0.0,0 STARLINK-3551,1 51887U 22022AM  24012.56184098  .00002739  00000-0  19013-3 0  9995,2 51887  53.2161 292.6779 0001187  83.4454 276.6674 15.08833188104419,6917.901,95.438,540.587,538.945,0.0
51887.0,STARLINK-3551,PAYLOAD,2024-01-12 21:25:58,15.08833801,0.0001248,53.2163,291.1919,81.7657,278.3477,0.00017016,2.421e-05,0.0,0 STARLINK-3551,1 51887U 22022AM  24012.89304261  .00002421  00000-0  17016-3 0  9996,2 51887  53.2163 291.1919 0001248  81.7657 278.3477 15.08833801104462,6917.899,95.438,540.628,538.901,0.0
